{
  "norad_id": 56542,
  "name": "STARLINK-6266",
  "history": [
    {
      "epoch": "2026-03-28T22:00:01.999584",
      "apogee_km": 502.52013499403347,
      "perigee_km": 500.15387111594373,
      "latitude_deg": 33.950107665063555,
      "longitude_deg": -77.79777824017219,
      "semi_major_axis_km": 6879.474003054988,
      "eccentricity": 0.00017198,
      "inclination_deg": 43.0022,
      "raan_deg": 117.9263,
      "arg_perigee_deg": 265.3588,
      "mean_anomaly_deg": 261.6156,
      "mean_motion_rev_day": 15.21492834
    },
    {
      "epoch": "2026-03-29T04:00:01.999584",
      "apogee_km": 501.4795102768885,
      "perigee_km": 500.17938561822575,
      "latitude_deg": -42.16373414975582,
      "longitude_deg": -53.79777824017219,
      "semi_major_axis_km": 6878.966447947557,
      "eccentricity": 9.45e-05,
      "inclination_deg": 43.0005,
      "raan_deg": 116.5282,
      "arg_perigee_deg": 302.6158,
      "mean_anomaly_deg": 155.5718,
      "mean_motion_rev_day": 15.21661229
    }
  ]
}